[
    {
        "OBJECT_NAME": "STARLINK-2436",
        "OBJECT_ID": "2021-027K",
        "EPOCH": "2023-09-14T10:14:55.546656",
        "MEAN_MOTION": 15.04807088,
        "ECCENTRICITY": 0.0001525,
        "INCLINATION": 53.052,
        "RA_OF_ASC_NODE": 274.6544,
        "ARG_OF_PERICENTER": 100.769,
        "MEAN_ANOMALY": 259.347,
        "EPHEMERIS_TYPE": 0,
        "CLASSIFICATION_TYPE": "U",
        "NORAD_CAT_ID": 48101,
        "ELEMENT_SET_NO": 999,
        "REV_AT_EPOCH": 13541,
        "BSTAR": 0.0010164,
        "MEAN_MOTION_DOT": 0.00014257,
        "MEAN_MOTION_DDOT": 0
    },
    {
        "OBJECT_NAME": "STARLINK-2437",
        "OBJECT_ID": "2021-027L",
        "EPOCH": "2023-09-14T01:18:57.881376",
        "MEAN_MOTION": 15.06418256,
        "ECCENTRICITY": 0.0001454,
        "INCLINATION": 53.052,
        "RA_OF_ASC_NODE": 266.151,
        "ARG_OF_PERICENTER": 88.5422,
        "MEAN_ANOMALY": 271.5733,
        "EPHEMERIS_TYPE": 0,
        "CLASSIFICATION_TYPE": "U",
        "NORAD_CAT_ID": 48102,
        "ELEMENT_SET_NO": 999,
        "REV_AT_EPOCH": 13549,
        "BSTAR": 0.00060516,
        "MEAN_MOTION_DOT": 0.00008748,
        "MEAN_MOTION_DDOT": 0
    },
    {
        "OBJECT_NAME": "STARLINK-2438",
        "OBJECT_ID": "2021-027M",
        "EPOCH": "2023-09-13T23:58:18.690816",
        "MEAN_MOTION": 15.22595569,
        "ECCENTRICITY": 0.0005702,
        "INCLINATION": 53.0527,
        "RA_OF_ASC_NODE": 253.8654,
        "ARG_OF_PERICENTER": 58.9943,
        "MEAN_ANOMALY": 301.1612,
        "EPHEMERIS_TYPE": 0,
        "CLASSIFICATION_TYPE": "U",
        "NORAD_CAT_ID": 48103,
        "ELEMENT_SET_NO": 999,
        "REV_AT_EPOCH": 13566,
        "BSTAR": 0.0042368,
        "MEAN_MOTION_DOT": 0.00100794,
        "MEAN_MOTION_DDOT": 0
    },
    {
        "OBJECT_NAME": "STARLINK-2439",
        "OBJECT_ID": "2021-027N",
        "EPOCH": "2023-09-13T17:49:48.058176",
        "MEAN_MOTION": 15.06409016,
        "ECCENTRICITY": 0.0001501,
        "INCLINATION": 53.0528,
        "RA_OF_ASC_NODE": 272.5521,
        "ARG_OF_PERICENTER": 98.1386,
        "MEAN_ANOMALY": 261.9774,
        "EPHEMERIS_TYPE": 0,
        "CLASSIFICATION_TYPE": "U",
        "NORAD_CAT_ID": 48104,
        "ELEMENT_SET_NO": 999,
        "REV_AT_EPOCH": 13578,
        "BSTAR": 0.00030221,
        "MEAN_MOTION_DOT": 0.00004224,
        "MEAN_MOTION_DDOT": 0
    },
    {
        "OBJECT_NAME": "STARLINK-2440",
        "OBJECT_ID": "2021-027P",
        "EPOCH": "2023-09-14T02:45:13.692384",
        "MEAN_MOTION": 15.06387582,
        "ECCENTRICITY": 0.0001197,
        "INCLINATION": 53.053,
        "RA_OF_ASC_NODE": 215.8812,
        "ARG_OF_PERICENTER": 97.5391,
        "MEAN_ANOMALY": 262.5734,
        "EPHEMERIS_TYPE": 0,
        "CLASSIFICATION_TYPE": "U",
        "NORAD_CAT_ID": 48105,
        "ELEMENT_SET_NO": 999,
        "REV_AT_EPOCH": 13620,
        "BSTAR": -0.00036781,
        "MEAN_MOTION_DOT": -0.00005754,
        "MEAN_MOTION_DDOT": 0
    },
    {
        "OBJECT_NAME": "STARLINK-2442",
        "OBJECT_ID": "2021-027Q",
        "EPOCH": "2023-09-14T00:47:07.005408",
        "MEAN_MOTION": 15.06423637,
        "ECCENTRICITY": 0.000156,
        "INCLINATION": 53.0531,
        "RA_OF_ASC_NODE": 266.2601,
        "ARG_OF_PERICENTER": 83.3989,
        "MEAN_ANOMALY": 276.7178,
        "EPHEMERIS_TYPE": 0,
        "CLASSIFICATION_TYPE": "U",
        "NORAD_CAT_ID": 48106,
        "ELEMENT_SET_NO": 999,
        "REV_AT_EPOCH": 13549,
        "BSTAR": 0.00062525,
        "MEAN_MOTION_DOT": 0.0000905,
        "MEAN_MOTION_DDOT": 0
    },
    {
        "OBJECT_NAME": "STARLINK-2443",
        "OBJECT_ID": "2021-027R",
        "EPOCH": "2023-09-13T12:24:02.303712",
        "MEAN_MOTION": 15.064118,
        "ECCENTRICITY": 0.0001331,
        "INCLINATION": 53.0523,
        "RA_OF_ASC_NODE": 268.5679,
        "ARG_OF_PERICENTER": 101.3202,
        "MEAN_ANOMALY": 258.7937,
        "EPHEMERIS_TYPE": 0,
        "CLASSIFICATION_TYPE": "U",
        "NORAD_CAT_ID": 48107,
        "ELEMENT_SET_NO": 999,
        "REV_AT_EPOCH": 13581,
        "BSTAR": 0.00075583,
        "MEAN_MOTION_DOT": 0.00010998,
        "MEAN_MOTION_DDOT": 0
    },
    {
        "OBJECT_NAME": "STARLINK-2444",
        "OBJECT_ID": "2021-027S",
        "EPOCH": "2023-09-14T00:29:51.960192",
        "MEAN_MOTION": 15.06416225,
        "ECCENTRICITY": 0.0001532,
        "INCLINATION": 53.0533,
        "RA_OF_ASC_NODE": 276.3025,
        "ARG_OF_PERICENTER": 89.2891,
        "MEAN_ANOMALY": 270.8273,
        "EPHEMERIS_TYPE": 0,
        "CLASSIFICATION_TYPE": "U",
        "NORAD_CAT_ID": 48108,
        "ELEMENT_SET_NO": 999,
        "REV_AT_EPOCH": 13535,
        "BSTAR": 0.00029606,
        "MEAN_MOTION_DOT": 0.00004133,
        "MEAN_MOTION_DDOT": 0
    },
    {
        "OBJECT_NAME": "STARLINK-2445",
        "OBJECT_ID": "2021-027T",
        "EPOCH": "2023-09-14T07:11:56.866272",
        "MEAN_MOTION": 15.06391759,
        "ECCENTRICITY": 0.0001645,
        "INCLINATION": 53.0527,
        "RA_OF_ASC_NODE": 285.0484,
        "ARG_OF_PERICENTER": 113.9116,
        "MEAN_ANOMALY": 246.2045,
        "EPHEMERIS_TYPE": 0,
        "CLASSIFICATION_TYPE": "U",
        "NORAD_CAT_ID": 48109,
        "ELEMENT_SET_NO": 999,
        "REV_AT_EPOCH": 13525,
        "BSTAR": -0.0001402,
        "MEAN_MOTION_DOT": -0.00002369,
        "MEAN_MOTION_DDOT": 0
    },
    {
        "OBJECT_NAME": "STARLINK-2447",
        "OBJECT_ID": "2021-027U",
        "EPOCH": "2023-09-14T01:49:28.426080",
        "MEAN_MOTION": 15.06423243,
        "ECCENTRICITY": 0.0001591,
        "INCLINATION": 53.0542,
        "RA_OF_ASC_NODE": 276.053,
        "ARG_OF_PERICENTER": 91.8133,
        "MEAN_ANOMALY": 268.3038,
        "EPHEMERIS_TYPE": 0,
        "CLASSIFICATION_TYPE": "U",
        "NORAD_CAT_ID": 48110,
        "ELEMENT_SET_NO": 999,
        "REV_AT_EPOCH": 13536,
        "BSTAR": 0.00028675,
        "MEAN_MOTION_DOT": 0.00003995,
        "MEAN_MOTION_DDOT": 0
    },
    {
        "OBJECT_NAME": "STARLINK-2448",
        "OBJECT_ID": "2021-027V",
        "EPOCH": "2023-09-14T06:25:29.587584",
        "MEAN_MOTION": 15.06388757,
        "ECCENTRICITY": 0.0001171,
        "INCLINATION": 53.0535,
        "RA_OF_ASC_NODE": 275.1678,
        "ARG_OF_PERICENTER": 84.6601,
        "MEAN_ANOMALY": 275.4521,
        "EPHEMERIS_TYPE": 0,
        "CLASSIFICATION_TYPE": "U",
        "NORAD_CAT_ID": 48111,
        "ELEMENT_SET_NO": 999,
        "REV_AT_EPOCH": 13539,
        "BSTAR": -0.00019501,
        "MEAN_MOTION_DOT": -0.00003184,
        "MEAN_MOTION_DDOT": 0
    },
    {
        "OBJECT_NAME": "STARLINK-2449",
        "OBJECT_ID": "2021-027W",
        "EPOCH": "2023-09-14T03:04:30.442368",
        "MEAN_MOTION": 15.06382713,
        "ECCENTRICITY": 0.0002076,
        "INCLINATION": 53.054,
        "RA_OF_ASC_NODE": 290.9865,
        "ARG_OF_PERICENTER": 25.6524,
        "MEAN_ANOMALY": 334.4567,
        "EPHEMERIS_TYPE": 0,
        "CLASSIFICATION_TYPE": "U",
        "NORAD_CAT_ID": 48112,
        "ELEMENT_SET_NO": 999,
        "REV_AT_EPOCH": 13515,
        "BSTAR": 0.00055503,
        "MEAN_MOTION_DOT": 0.00007991,
        "MEAN_MOTION_DDOT": 0
    }
]