STARLINK-2436           
1 48101U 21027K   23257.42703179  .00014257  00000+0  10164-2 0  9990
2 48101  53.0520 274.6544 0001525 100.7690 259.3470 15.04807088135414
STARLINK-2437           
1 48102U 21027L   23257.05483659  .00008748  00000+0  60516-3 0  9993
2 48102  53.0520 266.1510 0001454  88.5422 271.5733 15.06418256135494
STARLINK-2438           
1 48103U 21027M   23256.99882744  .00100794  00000+0  42368-2 0  9992
2 48103  53.0527 253.8654 0005702  58.9943 301.1612 15.22595569135669
STARLINK-2439           
1 48104U 21027N   23256.74291734  .00004224  00000+0  30221-3 0  9996
2 48104  53.0528 272.5521 0001501  98.1386 261.9774 15.06409016135780
STARLINK-2440           
1 48105U 21027P   23257.11474181 -.00005754  00000+0 -36781-3 0  9996
2 48105  53.0530 215.8812 0001197  97.5391 262.5734 15.06387582136201
STARLINK-2442           
1 48106U 21027Q   23257.03271997  .00009050  00000+0  62525-3 0  9994
2 48106  53.0531 266.2601 0001560  83.3989 276.7178 15.06423637135490
STARLINK-2443           
1 48107U 21027R   23256.51669333  .00010998  00000+0  75583-3 0  9993
2 48107  53.0523 268.5679 0001331 101.3202 258.7937 15.06411800135815
STARLINK-2444           
1 48108U 21027S   23257.02074028  .00004133  00000+0  29606-3 0  9991
2 48108  53.0533 276.3025 0001532  89.2891 270.8273 15.06416225135353
STARLINK-2445           
1 48109U 21027T   23257.29996373 -.00002369  00000+0 -14020-3 0  9992
2 48109  53.0527 285.0484 0001645 113.9116 246.2045 15.06391759135250
STARLINK-2447           
1 48110U 21027U   23257.07602345  .00003995  00000+0  28675-3 0  9998
2 48110  53.0542 276.0530 0001591  91.8133 268.3038 15.06423243135367
STARLINK-2448           
1 48111U 21027V   23257.26770356 -.00003184  00000+0 -19501-3 0  9998
2 48111  53.0535 275.1678 0001171  84.6601 275.4521 15.06388757135396
STARLINK-2449           
1 48112U 21027W   23257.12813012  .00007991  00000+0  55503-3 0  9991
2 48112  53.0540 290.9865 0002076  25.6524 334.4567 15.06382713135156
